CTC1_L_00358016-03
1 13432U 24827XW  26037.47805556  .00000000  00000+0  00000-0 0  9993
2 13432  90.0000 180.0000 0000000   0.0000   0.0000 13.72670174    12
CTC1_L_00358016-04
1 13433U 23380IM  26037.47805556  .00000000  00000+0  00000-0 0  9997
2 13433  90.0000 180.0000 0000000   0.0000  90.0000 13.72670174    12
CTC1_L_00358017-01
1 13434U 23055VA  26037.47805556  .00000000  00000+0  00000-0 0  9997
2 13434  90.0000 192.0000 0000000   0.0000 192.0000 13.72670174    19
CTC1_L_00358017-02
1 13435U 23567RF  26037.47805556  .00000000  00000+0  00000-0 0  9996
2 13435  90.0000 192.0000 0000000   0.0000 282.0000 13.72670174    10
CTC1_L_00358017-03
1 13436U 24144RL  26037.47805556  .00000000  00000+0  00000-0 0  9999
2 13436  90.0000 192.0000 0000000   0.0000  12.0000 13.72670174    12
CTC1_L_00358017-04
1 13437U 24920XJ  26037.47805556  .00000000  00000+0  00000-0 0  9992
2 13437  90.0000 192.0000 0000000   0.0000 102.0000 13.72670174    13
CTC1_L_00358018-01
1 13438U 23149AI  26037.47805556  .00000000  00000+0  00000-0 0  9995
2 13438  90.0000 204.0000 0000000   0.0000 204.0000 13.72670174    11
CTC1_L_00358018-02
1 13439U 25296AC  26037.47805556  .00000000  00000+0  00000-0 0  9991
2 13439  90.0000 204.0000 0000000   0.0000 294.0000 13.72670174    11
CTC1_L_00358018-03
1 13440U 25946PZ  26037.47805556  .00000000  00000+0  00000-0 0  9995
2 13440  90.0000 204.0000 0000000   0.0000  24.0000 13.72670174    14
CTC1_L_00358018-04
1 13441U 26661RH  26037.47805556  .00000000  00000+0  00000-0 0  9991
2 13441  90.0000 204.0000 0000000   0.0000 114.0000 13.72670174    15
CTC1_L_00358019-01
1 13442U 24178JR  26037.47805556  .00000000  00000+0  00000-0 0  9993
2 13442  90.0000 216.0000 0000000   0.0000 216.0000 13.72670174    12
CTC1_L_00358019-02
1 13443U 24139MC  26037.47805556  .00000000  00000+0  00000-0 0  9991
2 13443  90.0000 216.0000 0000000   0.0000 306.0000 13.72670174    13
CTC1_L_00358019-03
1 13444U 26314PD  26037.47805556  .00000000  00000+0  00000-0 0  9999
2 13444  90.0000 216.0000 0000000   0.0000  36.0000 13.72670174    14
CTC1_L_00358019-04
1 13445U 24157RQ  26037.47805556  .00000000  00000+0  00000-0 0  9993
2 13445  90.0000 216.0000 0000000   0.0000 126.0000 13.72670174    15
CTC1_L_00358020-01
1 13446U 24064NC  26037.47805556  .00000000  00000+0  00000-0 0  9991
2 13446  90.0000 228.0000 0000000   0.0000 228.0000 13.72670174    12
CTC1_L_00358020-02
1 13447U 26972OZ  26037.47805556  .00000000  00000+0  00000-0 0  9992
2 13447  90.0000 228.0000 0000000   0.0000 318.0000 13.72670174    13
CTC1_L_00358020-03
1 13448U 22786XA  26037.47805556  .00000000  00000+0  00000-0 0  9992
2 13448  90.0000 228.0000 0000000   0.0000  48.0000 13.72670174    14
CTC1_L_00358020-04
1 13449U 26320UK  26037.47805556  .00000000  00000+0  00000-0 0  9991
2 13449  90.0000 228.0000 0000000   0.0000 138.0000 13.72670174    15
CTC1_L_00358021-01
1 13450U 26333WN  26037.47805556  .00000000  00000+0  00000-0 0  9997
2 13450  90.0000 240.0000 0000000   0.0000 240.0000 13.72670174    15
CTC1_L_00358021-02
1 13451U 22494DD  26037.47805556  .00000000  00000+0  00000-0 0  9992
2 13451  90.0000 240.0000 0000000   0.0000 330.0000 13.72670174    16
CTC1_L_00358021-03
1 13452U 26246HH  26037.47805556  .00000000  00000+0  00000-0 0  9992
2 13452  90.0000 240.0000 0000000   0.0000  60.0000 13.72670174    17
CTC1_L_00358021-04
1 13453U 25006CN  26037.47805556  .00000000  00000+0  00000-0 0  9996
2 13453  90.0000 240.0000 0000000   0.0000 150.0000 13.72670174    18
CTC1_L_00358022-01
1 13454U 22340TM  26037.47805556  .00000000  00000+0  00000-0 0  9995
2 13454  90.0000 252.0000 0000000   0.0000 252.0000 13.72670174    15
CTC1_L_00358022-02
1 13455U 23006PZ  26037.47805556  .00000000  00000+0  00000-0 0  9996
2 13455  90.0000 252.0000 0000000   0.0000 342.0000 13.72670174    16
CTC1_L_00358022-03
1 13456U 24235P   26037.47805556  .00000000  00000+0  00000-0 0  9992
2 13456  90.0000 252.0000 0000000   0.0000  72.0000 13.72670174    17
CTC1_L_00358022-04
1 13457U 24973WK  26037.47805556  .00000000  00000+0  00000-0 0  9992
2 13457  90.0000 252.0000 0000000   0.0000 162.0000 13.72670174    18
CTC1_L_00358023-01
1 13458U 25174FF  26037.47805556  .00000000  00000+0  00000-0 0  9997
2 13458  90.0000 264.0000 0000000   0.0000 264.0000 13.72670174    15
CTC1_L_00358023-02
1 13459U 23061XF  26037.47805556  .00000000  00000+0  00000-0 0  9991
2 13459  90.0000 264.0000 0000000   0.0000 354.0000 13.72670174    16
CTC1_L_00358023-03
1 13460U 22035KE  26037.47805556  .00000000  00000+0  00000-0 0  9993
2 13460  90.0000 264.0000 0000000   0.0000  84.0000 13.72670174    18
CTC1_L_00358023-04
1 13461U 22577FR  26037.47805556  .00000000  00000+0  00000-0 0  9995
2 13461  90.0000 264.0000 0000000   0.0000 174.0000 13.72670174    19
CTC1_L_00358024-01
1 13462U 26591HW  26037.47805556  .00000000  00000+0  00000-0 0  9996
2 13462  90.0000 276.0000 0000000   0.0000 276.0000 13.72670174    16
CTC1_L_00358024-02
1 13463U 26979AJ  26037.47805556  .00000000  00000+0  00000-0 0  9997
2 13463  90.0000 276.0000 0000000   0.0000   6.0000 13.72670174    18
CTC1_L_00358024-03
1 13464U 22013VO  26037.47805556  .00000000  00000+0  00000-0 0  9993
2 13464  90.0000 276.0000 0000000   0.0000  96.0000 13.72670174    18
CTC1_L_00358024-04
1 13465U 22152QA  26037.47805556  .00000000  00000+0  00000-0 0  9998
2 13465  90.0000 276.0000 0000000   0.0000 186.0000 13.72670174    19
CTC1_L_00358025-01
1 13466U 23816UO  26037.47805556  .00000000  00000+0  00000-0 0  9997
2 13466  90.0000 288.0000 0000000   0.0000 288.0000 13.72670174    16
CTC1_L_00358025-02
1 13467U 22737KW  26037.47805556  .00000000  00000+0  00000-0 0  9999
2 13467  90.0000 288.0000 0000000   0.0000  18.0000 13.72670174    18
CTC1_L_00358025-03
1 13468U 22809TJ  26037.47805556  .00000000  00000+0  00000-0 0  9990
2 13468  90.0000 288.0000 0000000   0.0000 108.0000 13.72670174    19
CTC1_L_00358025-04
1 13469U 23542GE  26037.47805556  .00000000  00000+0  00000-0 0  9996
2 13469  90.0000 288.0000 0000000   0.0000 198.0000 13.72670174    19
CTC1_L_00358026-01
1 13470U 24369B   26037.47805556  .00000000  00000+0  00000-0 0  9996
2 13470  90.0000 300.0000 0000000   0.0000 300.0000 13.72670174    11
CTC1_L_00358026-02
1 13471U 25676NM  26037.47805556  .00000000  00000+0  00000-0 0  9999
2 13471  90.0000 300.0000 0000000   0.0000  30.0000 13.72670174    12
CTC1_L_00358026-03
1 13472U 23298FT  26037.47805556  .00000000  00000+0  00000-0 0  9998
2 13472  90.0000 300.0000 0000000   0.0000 120.0000 13.72670174    13
CTC1_L_00358026-04
1 13473U 26929FU  26037.47805556  .00000000  00000+0  00000-0 0  9993
2 13473  90.0000 300.0000 0000000   0.0000 210.0000 13.72670174    14
CTC1_L_00358027-01
1 13474U 26129WK  26037.47805556  .00000000  00000+0  00000-0 0  9996
2 13474  90.0000 312.0000 0000000   0.0000 312.0000 13.72670174    11
CTC1_L_00358027-02
1 13475U 26030ZG  26037.47805556  .00000000  00000+0  00000-0 0  9998
2 13475  90.0000 312.0000 0000000   0.0000  42.0000 13.72670174    12
CTC1_L_00358027-03
1 13476U 23031JV  26037.47805556  .00000000  00000+0  00000-0 0  9997
2 13476  90.0000 312.0000 0000000   0.0000 132.0000 13.72670174    13
CTC1_L_00358027-04
1 13477U 23264EG  26037.47805556  .00000000  00000+0  00000-0 0  9996
2 13477  90.0000 312.0000 0000000   0.0000 222.0000 13.72670174    14
CTC1_L_00358028-01
1 13478U 24525BP  26037.47805556  .00000000  00000+0  00000-0 0  9998
2 13478  90.0000 324.0000 0000000   0.0000 324.0000 13.72670174    11
CTC1_L_00358028-02
1 13479U 23101AV  26037.47805556  .00000000  00000+0  00000-0 0  9998
2 13479  90.0000 324.0000 0000000   0.0000  54.0000 13.72670174    12
CTC1_L_00358028-03
1 13480U 22242RS  26037.47805556  .00000000  00000+0  00000-0 0  9995
2 13480  90.0000 324.0000 0000000   0.0000 144.0000 13.72670174    14
CTC1_L_00358028-04
1 13481U 23639KZ  26037.47805556  .00000000  00000+0  00000-0 0  9997
2 13481  90.0000 324.0000 0000000   0.0000 234.0000 13.72670174    15
CTC1_L_00358029-01
1 13482U 23850DR  26037.47805556  .00000000  00000+0  00000-0 0  9993
2 13482  90.0000 336.0000 0000000   0.0000 336.0000 13.72670174    12
CTC1_L_00358029-02
1 13483U 26991WI  26037.47805556  .00000000  00000+0  00000-0 0  9993
2 13483  90.0000 336.0000 0000000   0.0000  66.0000 13.72670174    13
CTC1_L_00358029-03
1 13484U 23072IX  26037.47805556  .00000000  00000+0  00000-0 0  9991
2 13484  90.0000 336.0000 0000000   0.0000 156.0000 13.72670174    14
CTC1_L_00358029-04
1 13485U 24194VI  26037.47805556  .00000000  00000+0  00000-0 0  9998
2 13485  90.0000 336.0000 0000000   0.0000 246.0000 13.72670174    15
CTC1_L_00358030-01
1 13486U 23331YD  26037.47805556  .00000000  00000+0  00000-0 0  9991
2 13486  90.0000 348.0000 0000000   0.0000 348.0000 13.72670174    12
CTC1_L_00358030-02
1 13487U 23527FK  26037.47805556  .00000000  00000+0  00000-0 0  9999
2 13487  90.0000 348.0000 0000000   0.0000  78.0000 13.72670174    13
CTC1_L_00358030-03
1 13488U 23144WN  26037.47805556  .00000000  00000+0  00000-0 0  9995
2 13488  90.0000 348.0000 0000000   0.0000 168.0000 13.72670174    14
CTC1_L_00358030-04
1 13489U 25057DM  26037.47805556  .00000000  00000+0  00000-0 0  9991
2 13489  90.0000 348.0000 0000000   0.0000 258.0000 13.72670174    15
